STARLINK-35537          
1 66234U 25245A   25332.50105229  .00065198  00000+0  16267-2 0  9990
2 66234  53.1604  36.7823 0001311  86.3980 273.7175 15.39606378  5725
STARLINK-35541          
1 66235U 25245B   25332.50071905  .00056072  00000+0  14024-2 0  9994
2 66235  53.1610  36.7786 0001321  70.1789 289.9358 15.39601069  5678
STARLINK-35454          
1 66236U 25245C   25332.49640854  .00030288  00000+0  76439-3 0  9998
2 66236  53.1604  36.7541 0001507  72.8292 287.2878 15.39611833  5561
STARLINK-35557          
1 66237U 25245D   25332.49607754  .00049985  00000+0  12523-2 0  9998
2 66237  53.1615  36.7462 0002541  41.8801 318.2398 15.39597651  5728
STARLINK-35556          
1 66238U 25245E   25332.49176121  .00025233  00000+0  63895-3 0  9997
2 66238  53.1608  36.7183 0001404  74.6372 285.4788 15.39608915  5729
STARLINK-35554          
1 66239U 25245F   25332.42651685  .00075608  00000+0  18776-2 0  9992
2 66239  53.1618  37.0244 0001384 116.5914 243.5233 15.39683800  5555
STARLINK-35546          
1 66240U 25245G   25332.66668981  .00070574  00000+0  17604-2 0  9993
2 66240  53.1599  35.8462 0001571  81.0224 194.9490 15.39578802  5842
STARLINK-35497          
1 66241U 25245H   25332.66668981  .00070233  00000+0  17521-2 0  9994
2 66241  53.1599  35.8426 0001441  84.7504 193.0576 15.39578217  5799
STARLINK-35480          
1 66242U 25245J   25332.66668981  .00071881  00000+0  17927-2 0  9995
2 66242  53.1596  35.7433 0001406  92.7977 234.6752 15.39576061  5847
STARLINK-35495          
1 66243U 25245K   25332.66668981  .00074001  00000+0  18432-2 0  9995
2 66243  53.1595  35.7956 0001507  79.9509 221.7197 15.39601214  5846
STARLINK-35517          
1 66244U 25245L   25332.66668981  .00073525  00000+0  18323-2 0  9995
2 66244  53.1594  35.7906 0001640  81.7470 221.7391 15.39588721  5626
STARLINK-35503          
1 66245U 25245M   25332.66668981  .00071579  00000+0  17850-2 0  9997
2 66245  53.1596  35.7378 0001389  71.9033 257.4054 15.39581185  5795
