CCSDS_OMM_VERS = 2.0
CREATION_DATE  = 
ORIGINATOR     = 

OBJECT_NAME    = STARLINK-35537
OBJECT_ID      = 2025-245A
CENTER_NAME    = EARTH
REF_FRAME      = TEME
TIME_SYSTEM    = UTC
MEAN_ELEMENT_THEORY = SGP/SGP4

EPOCH          = 2025-11-28T12:01:30.917856
MEAN_MOTION    = 15.39606378
ECCENTRICITY   = .00013119
INCLINATION    = 53.1604
RA_OF_ASC_NODE = 36.7823
ARG_OF_PERICENTER = 86.3980
MEAN_ANOMALY   = 273.7175

EPHEMERIS_TYPE = 0
CLASSIFICATION_TYPE = U
NORAD_CAT_ID   = 66234
ELEMENT_SET_NO = 999
REV_AT_EPOCH   = 572
BSTAR          = .16267491E-2
MEAN_MOTION_DOT = .65198E-3
MEAN_MOTION_DDOT = 0

CCSDS_OMM_VERS = 2.0
CREATION_DATE  = 
ORIGINATOR     = 

OBJECT_NAME    = STARLINK-35541
OBJECT_ID      = 2025-245B
CENTER_NAME    = EARTH
REF_FRAME      = TEME
TIME_SYSTEM    = UTC
MEAN_ELEMENT_THEORY = SGP/SGP4

EPOCH          = 2025-11-28T12:01:02.125920
MEAN_MOTION    = 15.39601069
ECCENTRICITY   = .00013213
INCLINATION    = 53.1610
RA_OF_ASC_NODE = 36.7786
ARG_OF_PERICENTER = 70.1789
MEAN_ANOMALY   = 289.9358

EPHEMERIS_TYPE = 0
CLASSIFICATION_TYPE = U
NORAD_CAT_ID   = 66235
ELEMENT_SET_NO = 999
REV_AT_EPOCH   = 567
BSTAR          = .14023658E-2
MEAN_MOTION_DOT = .56072E-3
MEAN_MOTION_DDOT = 0

CCSDS_OMM_VERS = 2.0
CREATION_DATE  = 
ORIGINATOR     = 

OBJECT_NAME    = STARLINK-35454
OBJECT_ID      = 2025-245C
CENTER_NAME    = EARTH
REF_FRAME      = TEME
TIME_SYSTEM    = UTC
MEAN_ELEMENT_THEORY = SGP/SGP4

EPOCH          = 2025-11-28T11:54:49.697856
MEAN_MOTION    = 15.39611833
ECCENTRICITY   = .00015071
INCLINATION    = 53.1604
RA_OF_ASC_NODE = 36.7541
ARG_OF_PERICENTER = 72.8292
MEAN_ANOMALY   = 287.2878

EPHEMERIS_TYPE = 0
CLASSIFICATION_TYPE = U
NORAD_CAT_ID   = 66236
ELEMENT_SET_NO = 999
REV_AT_EPOCH   = 556
BSTAR          = .76438516E-3
MEAN_MOTION_DOT = .30288E-3
MEAN_MOTION_DDOT = 0

CCSDS_OMM_VERS = 2.0
CREATION_DATE  = 
ORIGINATOR     = 

OBJECT_NAME    = STARLINK-35557
OBJECT_ID      = 2025-245D
CENTER_NAME    = EARTH
REF_FRAME      = TEME
TIME_SYSTEM    = UTC
MEAN_ELEMENT_THEORY = SGP/SGP4

EPOCH          = 2025-11-28T11:54:21.099456
MEAN_MOTION    = 15.39597651
ECCENTRICITY   = .00025413
INCLINATION    = 53.1615
RA_OF_ASC_NODE = 36.7462
ARG_OF_PERICENTER = 41.8801
MEAN_ANOMALY   = 318.2398

EPHEMERIS_TYPE = 0
CLASSIFICATION_TYPE = U
NORAD_CAT_ID   = 66237
ELEMENT_SET_NO = 999
REV_AT_EPOCH   = 572
BSTAR          = .12522695E-2
MEAN_MOTION_DOT = .49985E-3
MEAN_MOTION_DDOT = 0

CCSDS_OMM_VERS = 2.0
CREATION_DATE  = 
ORIGINATOR     = 

OBJECT_NAME    = STARLINK-35556
OBJECT_ID      = 2025-245E
CENTER_NAME    = EARTH
REF_FRAME      = TEME
TIME_SYSTEM    = UTC
MEAN_ELEMENT_THEORY = SGP/SGP4

EPOCH          = 2025-11-28T11:48:08.168544
MEAN_MOTION    = 15.39608915
ECCENTRICITY   = .00014046
INCLINATION    = 53.1608
RA_OF_ASC_NODE = 36.7183
ARG_OF_PERICENTER = 74.6372
MEAN_ANOMALY   = 285.4788

EPHEMERIS_TYPE = 0
CLASSIFICATION_TYPE = U
NORAD_CAT_ID   = 66238
ELEMENT_SET_NO = 999
REV_AT_EPOCH   = 572
BSTAR          = .63895387E-3
MEAN_MOTION_DOT = .25233E-3
MEAN_MOTION_DDOT = 0

CCSDS_OMM_VERS = 2.0
CREATION_DATE  = 
ORIGINATOR     = 

OBJECT_NAME    = STARLINK-35554
OBJECT_ID      = 2025-245F
CENTER_NAME    = EARTH
REF_FRAME      = TEME
TIME_SYSTEM    = UTC
MEAN_ELEMENT_THEORY = SGP/SGP4

EPOCH          = 2025-11-28T10:14:11.055840
MEAN_MOTION    = 15.39683800
ECCENTRICITY   = .00013845
INCLINATION    = 53.1618
RA_OF_ASC_NODE = 37.0244
ARG_OF_PERICENTER = 116.5914
MEAN_ANOMALY   = 243.5233

EPHEMERIS_TYPE = 0
CLASSIFICATION_TYPE = U
NORAD_CAT_ID   = 66239
ELEMENT_SET_NO = 999
REV_AT_EPOCH   = 555
BSTAR          = .18775525E-2
MEAN_MOTION_DOT = .75608E-3
MEAN_MOTION_DDOT = 0

CCSDS_OMM_VERS = 2.0
CREATION_DATE  = 
ORIGINATOR     = 

OBJECT_NAME    = STARLINK-35546
OBJECT_ID      = 2025-245G
CENTER_NAME    = EARTH
REF_FRAME      = TEME
TIME_SYSTEM    = UTC
MEAN_ELEMENT_THEORY = SGP/SGP4

EPOCH          = 2025-11-28T16:00:01.999584
MEAN_MOTION    = 15.39578802
ECCENTRICITY   = .00015713
INCLINATION    = 53.1599
RA_OF_ASC_NODE = 35.8462
ARG_OF_PERICENTER = 81.0224
MEAN_ANOMALY   = 194.9490

EPHEMERIS_TYPE = 0
CLASSIFICATION_TYPE = U
NORAD_CAT_ID   = 66240
ELEMENT_SET_NO = 999
REV_AT_EPOCH   = 584
BSTAR          = .1760399E-2
MEAN_MOTION_DOT = .70574E-3
MEAN_MOTION_DDOT = 0

CCSDS_OMM_VERS = 2.0
CREATION_DATE  = 
ORIGINATOR     = 

OBJECT_NAME    = STARLINK-35497
OBJECT_ID      = 2025-245H
CENTER_NAME    = EARTH
REF_FRAME      = TEME
TIME_SYSTEM    = UTC
MEAN_ELEMENT_THEORY = SGP/SGP4

EPOCH          = 2025-11-28T16:00:01.999584
MEAN_MOTION    = 15.39578217
ECCENTRICITY   = .00014413
INCLINATION    = 53.1599
RA_OF_ASC_NODE = 35.8426
ARG_OF_PERICENTER = 84.7504
MEAN_ANOMALY   = 193.0576

EPHEMERIS_TYPE = 0
CLASSIFICATION_TYPE = U
NORAD_CAT_ID   = 66241
ELEMENT_SET_NO = 999
REV_AT_EPOCH   = 579
BSTAR          = .17520779E-2
MEAN_MOTION_DOT = .70233E-3
MEAN_MOTION_DDOT = 0

CCSDS_OMM_VERS = 2.0
CREATION_DATE  = 
ORIGINATOR     = 

OBJECT_NAME    = STARLINK-35480
OBJECT_ID      = 2025-245J
CENTER_NAME    = EARTH
REF_FRAME      = TEME
TIME_SYSTEM    = UTC
MEAN_ELEMENT_THEORY = SGP/SGP4

EPOCH          = 2025-11-28T16:00:01.999584
MEAN_MOTION    = 15.39576061
ECCENTRICITY   = .00014069
INCLINATION    = 53.1596
RA_OF_ASC_NODE = 35.7433
ARG_OF_PERICENTER = 92.7977
MEAN_ANOMALY   = 234.6752

EPHEMERIS_TYPE = 0
CLASSIFICATION_TYPE = U
NORAD_CAT_ID   = 66242
ELEMENT_SET_NO = 999
REV_AT_EPOCH   = 584
BSTAR          = .1792673E-2
MEAN_MOTION_DOT = .71881E-3
MEAN_MOTION_DDOT = 0

CCSDS_OMM_VERS = 2.0
CREATION_DATE  = 
ORIGINATOR     = 

OBJECT_NAME    = STARLINK-35495
OBJECT_ID      = 2025-245K
CENTER_NAME    = EARTH
REF_FRAME      = TEME
TIME_SYSTEM    = UTC
MEAN_ELEMENT_THEORY = SGP/SGP4

EPOCH          = 2025-11-28T16:00:01.999584
MEAN_MOTION    = 15.39601214
ECCENTRICITY   = .00015074
INCLINATION    = 53.1595
RA_OF_ASC_NODE = 35.7956
ARG_OF_PERICENTER = 79.9509
MEAN_ANOMALY   = 221.7197

EPHEMERIS_TYPE = 0
CLASSIFICATION_TYPE = U
NORAD_CAT_ID   = 66243
ELEMENT_SET_NO = 999
REV_AT_EPOCH   = 584
BSTAR          = .18432273E-2
MEAN_MOTION_DOT = .74001E-3
MEAN_MOTION_DDOT = 0

CCSDS_OMM_VERS = 2.0
CREATION_DATE  = 
ORIGINATOR     = 

OBJECT_NAME    = STARLINK-35517
OBJECT_ID      = 2025-245L
CENTER_NAME    = EARTH
REF_FRAME      = TEME
TIME_SYSTEM    = UTC
MEAN_ELEMENT_THEORY = SGP/SGP4

EPOCH          = 2025-11-28T16:00:01.999584
MEAN_MOTION    = 15.39588721
ECCENTRICITY   = .00016402
INCLINATION    = 53.1594
RA_OF_ASC_NODE = 35.7906
ARG_OF_PERICENTER = 81.7470
MEAN_ANOMALY   = 221.7391

EPHEMERIS_TYPE = 0
CLASSIFICATION_TYPE = U
NORAD_CAT_ID   = 66244
ELEMENT_SET_NO = 999
REV_AT_EPOCH   = 562
BSTAR          = .18322895E-2
MEAN_MOTION_DOT = .73525E-3
MEAN_MOTION_DDOT = 0

CCSDS_OMM_VERS = 2.0
CREATION_DATE  = 
ORIGINATOR     = 

OBJECT_NAME    = STARLINK-35503
OBJECT_ID      = 2025-245M
CENTER_NAME    = EARTH
REF_FRAME      = TEME
TIME_SYSTEM    = UTC
MEAN_ELEMENT_THEORY = SGP/SGP4

EPOCH          = 2025-11-28T16:00:01.999584
MEAN_MOTION    = 15.39581185
ECCENTRICITY   = .00013891
INCLINATION    = 53.1596
RA_OF_ASC_NODE = 35.7378
ARG_OF_PERICENTER = 71.9033
MEAN_ANOMALY   = 257.4054

EPHEMERIS_TYPE = 0
CLASSIFICATION_TYPE = U
NORAD_CAT_ID   = 66245
ELEMENT_SET_NO = 999
REV_AT_EPOCH   = 579
BSTAR          = .17849657E-2
MEAN_MOTION_DOT = .71579E-3
MEAN_MOTION_DDOT = 0

